NORAD_CAT_ID,OBJECT_NAME,OBJECT_TYPE,EPOCH,MEAN_MOTION,ECCENTRICITY,INCLINATION,RA_OF_ASC_NODE,ARG_OF_PERICENTER,MEAN_ANOMALY,BSTAR,MEAN_MOTION_DOT,MEAN_MOTION_DDOT,TLE_LINE0,TLE_LINE1,TLE_LINE2,SEMIMAJOR_AXIS,PERIOD,APOGEE,PERIGEE,DECAYED
51745.0,STARLINK-3449,PAYLOAD,2024-06-22 14:13:04,15.08839678,0.0001327,53.217,245.291,84.2085,275.9058,4.258e-05,3.9e-06,0.0,0 STARLINK-3449,1 51745U 22016AH  24174.59241760  .00000390  00000-0  42580-4 0  9990,2 51745  53.2170 245.2910 0001327  84.2085 275.9058 15.08839678129198,6917.881,95.438,540.664,538.828,0.0
51745.0,STARLINK-3449,PAYLOAD,2024-06-23 04:31:32,15.08842317,0.000132,53.2166,242.6155,79.8286,280.2855,0.0001159,1.557e-05,0.0,0 STARLINK-3449,1 51745U 22016AH  24175.18857325  .00001557  00000-0  11590-3 0  9998,2 51745  53.2166 242.6155 0001320  79.8286 280.2855 15.08842317130416,6917.873,95.437,540.651,538.825,0.0
51745.0,STARLINK-3449,PAYLOAD,2024-06-23 14:03:50,15.08850877,0.0001318,53.2163,240.8304,84.8036,275.3106,0.00017228,2.456e-05,0.0,0 STARLINK-3449,1 51745U 22016AH  24175.58600530  .00002456  00000-0  17228-3 0  9999,2 51745  53.2163 240.8304 0001318  84.8036 275.3106 15.08850877129349,6917.847,95.437,540.624,538.8,0.0
51745.0,STARLINK-3449,PAYLOAD,2024-06-24 12:19:14,15.088477,0.0001324,53.2164,236.6685,83.771,276.3433,0.00011063,1.474e-05,0.0,0 STARLINK-3449,1 51745U 22016AH  24176.51336724  .00001474  00000-0  11063-3 0  9994,2 51745  53.2164 236.6685 0001324  83.7710 276.3433 15.08847700130616,6917.857,95.437,540.638,538.806,0.0
51745.0,STARLINK-3449,PAYLOAD,2024-06-25 12:10:02,15.08840326,0.0001543,53.2171,232.2048,101.0715,259.045,-7.1793e-05,-1.43e-05,0.0,0 STARLINK-3449,1 51745U 22016AH  24177.50697449 -.00001430  00000-0 -71793-4 0  9999,2 51745  53.2171 232.2048 0001543 101.0715 259.0450 15.08840326130761,6917.879,95.438,540.812,538.677,0.0
51745.0,STARLINK-3449,PAYLOAD,2024-06-26 10:25:26,15.08840561,0.0001553,53.217,228.0406,96.5897,263.5271,5.1622e-05,5.34e-06,0.0,0 STARLINK-3449,1 51745U 22016AH  24178.43433029  .00000534  00000-0  51622-4 0  9995,2 51745  53.2170 228.0406 0001553  96.5897 263.5271 15.08840561129772,6917.879,95.438,540.818,538.669,0.0
51745.0,STARLINK-3449,PAYLOAD,2024-06-27 08:40:50,15.0883501,0.0001461,53.2161,223.8796,91.9854,268.1305,5.2909e-05,5.54e-06,0.0,0 STARLINK-3449,1 51745U 22016AH  24179.36169673  .00000554  00000-0  52909-4 0  9990,2 51745  53.2161 223.8796 0001461  91.9854 268.1305 15.08835010131042,6917.896,95.438,540.771,538.75,0.0
51745.0,STARLINK-3449,PAYLOAD,2024-06-28 10:07:00,15.0884167,0.0001432,53.2156,219.1196,87.9899,272.1257,4.8136e-05,4.78e-06,0.0,0 STARLINK-3449,1 51745U 22016AH  24180.42153504  .00000478  00000-0  48136-4 0  9997,2 51745  53.2156 219.1196 0001432  87.9899 272.1257 15.08841670131208,6917.875,95.437,540.731,538.75,0.0
51745.0,STARLINK-3449,PAYLOAD,2024-06-29 11:33:10,15.08848793,0.0001427,53.2157,214.3599,84.324,275.7915,0.00014834,2.074e-05,0.0,0 STARLINK-3449,1 51745U 22016AH  24181.48136729  .00002074  00000-0  14834-3 0  9995,2 51745  53.2157 214.3599 0001427  84.3240 275.7915 15.08848793131368,6917.854,95.437,540.706,538.731,0.0
51745.0,STARLINK-3449,PAYLOAD,2024-06-29 19:30:06,15.08834317,0.000137,53.2156,212.8685,95.4645,264.6503,3.1174e-05,2.08e-06,0.0,0 STARLINK-3449,1 51745U 22016AH  24181.81257921  .00000208  00000-0  31174-4 0  9994,2 51745  53.2156 212.8685 0001370  95.4645 264.6503 15.08834317131418,6917.898,95.438,540.711,538.815,0.0
51745.0,STARLINK-3449,PAYLOAD,2024-06-30 08:13:12,15.0883196,0.0001412,53.2146,210.4967,93.8833,266.232,-3.9575e-05,-9.18e-06,0.0,0 STARLINK-3449,1 51745U 22016AH  24182.34250566 -.00000918  00000-0 -39575-4 0  9994,2 51745  53.2146 210.4967 0001412  93.8833 266.2320 15.08831960130361,6917.905,95.438,540.747,538.793,0.0
51745.0,STARLINK-3449,PAYLOAD,2024-06-30 19:20:54,15.08833927,0.0001454,53.2158,208.4156,88.251,271.8649,-1.3009e-05,-4.95e-06,0.0,0 STARLINK-3449,1 51745U 22016AH  24182.80618617 -.00000495  00000-0 -13009-4 0  9994,2 51745  53.2158 208.4156 0001454  88.2510 271.8649 15.08833927130436,6917.899,95.438,540.77,538.758,0.0
51745.0,STARLINK-3449,PAYLOAD,2024-07-01 04:53:12,15.08843182,0.0001283,53.2152,206.6316,98.8221,261.2916,-2.8614e-05,-7.43e-06,0.0,0 STARLINK-3449,1 51745U 22016AH  24183.20362153 -.00000743  00000-0 -28614-4 0  9994,2 51745  53.2152 206.6316 0001283  98.8221 261.2916 15.08843182131620,6917.871,95.437,540.623,538.848,0.0
51745.0,STARLINK-3449,PAYLOAD,2024-07-01 08:03:59,15.08842151,0.0001349,53.2154,206.0372,87.5967,272.5179,-1.6872e-06,-3.15e-06,0.0,0 STARLINK-3449,1 51745U 22016AH  24183.33610194 -.00000315  00000-0 -16872-5 0  9998,2 51745  53.2154 206.0372 0001349  87.5967 272.5179 15.08842151130511,6917.874,95.437,540.672,538.806,0.0
51745.0,STARLINK-3449,PAYLOAD,2024-07-02 07:54:46,15.08844282,0.0001404,53.2147,201.5775,79.9919,280.1231,0.00032868,4.947e-05,0.0,0 STARLINK-3449,1 51745U 22016AH  24184.32970373  .00004947  00000-0  32868-3 0  9990,2 51745  53.2147 201.5775 0001404  79.9919 280.1231 15.08844282131796,6917.867,95.437,540.704,538.761,0.0
51745.0,STARLINK-3449,PAYLOAD,2024-07-03 04:34:47,15.08837911,0.0001415,53.2147,197.7117,80.1683,279.9469,4.2228e-05,3.84e-06,0.0,0 STARLINK-3449,1 51745U 22016AH  24185.19082595  .00000384  00000-0  42228-4 0  9999,2 51745  53.2147 197.7117 0001415  80.1683 279.9469 15.08837911131921,6917.887,95.438,540.731,538.773,0.0
51745.0,STARLINK-3449,PAYLOAD,2024-07-03 17:17:52,15.08840539,0.0001394,53.2159,195.3322,81.8391,278.2759,6.1543e-05,6.92e-06,0.0,0 STARLINK-3449,1 51745U 22016AH  24185.72074529  .00000692  00000-0  61543-4 0  9999,2 51745  53.2159 195.3322 0001394  81.8391 278.2759 15.08840539130873,6917.879,95.438,540.708,538.779,0.0
51745.0,STARLINK-3449,PAYLOAD,2024-07-04 07:36:20,15.08844621,0.0001383,53.2158,192.6562,82.3775,277.7374,4.0953e-05,3.64e-06,0.0,0 STARLINK-3449,1 51745U 22016AH  24186.31690098  .00000364  00000-0  40953-4 0  9998,2 51745  53.2158 192.6562 0001383  82.3775 277.7374 15.08844621132097,6917.866,95.437,540.688,538.775,0.0
51745.0,STARLINK-3449,PAYLOAD,2024-07-04 17:08:39,15.08840523,0.0001392,53.2158,190.8715,79.0202,281.0946,4.4575e-05,4.22e-06,0.0,0 STARLINK-3449,1 51745U 22016AH  24186.71434265  .00000422  00000-0  44575-4 0  9993,2 51745  53.2158 190.8715 0001392  79.0202 281.0946 15.08840523131027,6917.879,95.438,540.707,538.781,0.0
51745.0,STARLINK-3449,PAYLOAD,2024-07-05 04:16:21,15.08836739,0.000139,53.2159,188.7911,85.1973,274.9178,7.9971e-05,9.85e-06,0.0,0 STARLINK-3449,1 51745U 22016AH  24187.17802462  .00000985  00000-0  79971-4 0  9994,2 51745  53.2159 188.7911 0001390  85.1973 274.9178 15.08836739132228,6917.89,95.438,540.717,538.794,0.0
51745.0,STARLINK-3449,PAYLOAD,2024-07-05 10:37:53,15.08840256,0.0001413,53.216,187.6017,85.1865,274.9288,0.00010365,1.362e-05,0.0,0 STARLINK-3449,1 51745U 22016AH  24187.44298218  .00001362  00000-0  10365-3 0  9993,2 51745  53.2160 187.6017 0001413  85.1865 274.9288 15.08840256131131,6917.88,95.438,540.722,538.767,0.0
51745.0,STARLINK-3449,PAYLOAD,2024-07-05 16:59:26,15.08837127,0.0001411,53.2158,186.4121,86.1124,274.003,5.7813e-05,6.32e-06,0.0,0 STARLINK-3449,1 51745U 22016AH  24187.70794568  .00000632  00000-0  57813-4 0  9990,2 51745  53.2158 186.4121 0001411  86.1124 274.0030 15.08837127131171,6917.889,95.438,540.73,538.778,0.0
51745.0,STARLINK-3449,PAYLOAD,2024-07-06 05:42:31,15.0883911,0.0001422,53.216,184.0333,89.3376,270.7779,1.7833e-05,-4e-08,0.0,0 STARLINK-3449,1 51745U 22016AH  24188.23786572 -.00000004  00000-0  17833-4 0  9997,2 51745  53.2160 184.0333 0001422  89.3376 270.7779 15.08839110132380,6917.883,95.438,540.732,538.764,0.0
51745.0,STARLINK-3449,PAYLOAD,2024-07-06 08:53:17,15.08840915,0.0001437,53.2161,183.4387,89.239,270.8767,2.9678e-05,1.84e-06,0.0,0 STARLINK-3449,1 51745U 22016AH  24188.37034407  .00000184  00000-0  29678-4 0  9993,2 51745  53.2161 183.4387 0001437  89.2390 270.8767 15.08840915131274,6917.878,95.437,540.737,538.748,0.0
51745.0,STARLINK-3449,PAYLOAD,2024-07-06 16:50:13,15.08837279,0.000144,53.2161,181.9517,87.3432,272.7725,1.2676e-05,-8.6e-07,0.0,0 STARLINK-3449,1 51745U 22016AH  24188.70154643 -.00000086  00000-0  12676-4 0  9997,2 51745  53.2161 181.9517 0001440  87.3432 272.7725 15.08837279131322,6917.889,95.438,540.75,538.758,0.0
51745.0,STARLINK-3449,PAYLOAD,2024-07-07 08:44:04,15.08838814,0.0001396,53.2159,178.9776,88.6776,271.4376,1.4761e-05,-5.3e-07,0.0,0 STARLINK-3449,1 51745U 22016AH  24189.36394631 -.00000053  00000-0  14761-4 0  9994,2 51745  53.2159 178.9776 0001396  88.6776 271.4376 15.08838814132557,6917.884,95.438,540.715,538.783,0.0
51745.0,STARLINK-3449,PAYLOAD,2024-07-08 08:34:51,15.08845854,0.0001352,53.2159,174.5161,90.4563,269.6584,9.1364e-05,1.167e-05,0.0,0 STARLINK-3449,1 51745U 22016AH  24190.35753877  .00001167  00000-0  91364-4 0  9996,2 51745  53.2159 174.5161 0001352  90.4563 269.6584 15.08845854132703,6917.862,95.437,540.663,538.792,0.0
51745.0,STARLINK-3449,PAYLOAD,2024-07-08 16:31:47,15.08842275,0.0001346,53.2158,173.0291,90.6551,269.4596,6.6828e-05,7.76e-06,0.0,0 STARLINK-3449,1 51745U 22016AH  24190.68874127  .00000776  00000-0  66828-4 0  9996,2 51745  53.2158 173.0291 0001346  90.6551 269.4596 15.08842275131627,6917.873,95.437,540.67,538.807,0.0
51745.0,STARLINK-3449,PAYLOAD,2024-07-09 05:14:52,15.08833595,0.0001357,53.2162,170.6506,95.7223,264.3924,0.00016945,2.409e-05,0.0,0 STARLINK-3449,1 51745U 22016AH  24191.21866519  .00002409  00000-0  16945-3 0  9991,2 51745  53.2162 170.6506 0001357  95.7223 264.3924 15.08833595132836,6917.9,95.438,540.704,538.826,0.0
51745.0,STARLINK-3449,PAYLOAD,2024-07-09 08:25:38,15.08840004,0.0001456,53.2168,170.0549,99.0774,261.0383,5.9153e-05,6.54e-06,0.0,0 STARLINK-3449,1 51745U 22016AH  24191.35114317  .00000654  00000-0  59153-4 0  9997,2 51745  53.2168 170.0549 0001456  99.0774 261.0383 15.08840004131724,6917.88,95.438,540.753,538.738,0.0
